{
  "type": "FeatureCollection",
  "features": [
    {
      "type": "Feature",
      "properties": {
        "norad_id": 41019,
        "name": "GPS BIIF-11 (PRN 10)",
        "group": "gnss",
        "lat": 56.08400742317469,
        "lon": 114.7358870129424,
        "alt_km": 20421.72352628019,
        "timestamp": "2025-12-03T10:52:57.693464+00:00",
        "meta_object_name": "GPS BIIF-11 (PRN 10)",
        "meta_object_id": "2015-062A",
        "meta_epoch": "2025-12-01T20:11:25.977696",
        "meta_mean_motion": 2.00566903,
        "meta_eccentricity": 0.011051,
        "meta_inclination": 56.8244,
        "meta_ra_of_asc_node": 38.424,
        "meta_arg_of_pericenter": 229.6519,
        "meta_mean_anomaly": 129.4268,
        "meta_ephemeris_type": 0,
        "meta_classification_type": "U",
        "meta_norad_cat_id": 41019,
        "meta_element_set_no": 999,
        "meta_rev_at_epoch": 7387,
        "meta_bstar": 0,
        "meta_mean_motion_dot": -6.5e-07,
        "meta_mean_motion_ddot": 0,
        "tle_line1": "1 41019U 15062A   25335.84127289 -.00000065  00000+0  00000+0 0  9998",
        "tle_line2": "2 41019  56.8244  38.4240 0110510 229.6519 129.4268  2.00566903 73877"
      },
      "geometry": {
        "type": "Point",
        "coordinates": [
          114.7358870129424,
          56.08400742317469
        ]
      }
    },
    {
      "type": "Feature",
      "properties": {
        "norad_id": 41028,
        "name": "GSAT-15 (GAGAN/PRN 139)",
        "group": "gnss",
        "lat": -0.004144075382401793,
        "lon": -30.708964938228835,
        "alt_km": 35787.30208547556,
        "timestamp": "2025-12-03T10:52:57.693477+00:00",
        "meta_object_name": "GSAT-15 (GAGAN/PRN 139)",
        "meta_object_id": "2015-065A",
        "meta_epoch": "2025-12-03T02:12:56.803104",
        "meta_mean_motion": 1.0027262,
        "meta_eccentricity": 0.0003008,
        "meta_inclination": 0.0248,
        "meta_ra_of_asc_node": 74.6482,
        "meta_arg_of_pericenter": 158.0746,
        "meta_mean_anomaly": 326.1986,
        "meta_ephemeris_type": 0,
        "meta_classification_type": "U",
        "meta_norad_cat_id": 41028,
        "meta_element_set_no": 999,
        "meta_rev_at_epoch": 3683,
        "meta_bstar": 0,
        "meta_mean_motion_dot": -2.39e-06,
        "meta_mean_motion_ddot": 0,
        "tle_line1": "1 41028U 15065A   25337.09232411 -.00000239  00000+0  00000+0 0  9997",
        "tle_line2": "2 41028   0.0248  74.6482 0003008 158.0746 326.1986  1.00272620 36839"
      },
      "geometry": {
        "type": "Point",
        "coordinates": [
          -30.708964938228835,
          -0.004144075382401793
        ]
      }
    },
    {
      "type": "Feature",
      "properties": {
        "norad_id": 41174,
        "name": "GSAT0209 (GALILEO 12)",
        "group": "gnss",
        "lat": -20.27329001293317,
        "lon": -58.79247835028035,
        "alt_km": 23231.11497064246,
        "timestamp": "2025-12-03T10:52:57.693490+00:00",
        "meta_object_name": "GSAT0209 (GALILEO 12)",
        "meta_object_id": "2015-079A",
        "meta_epoch": "2025-12-01T22:43:10.411392",
        "meta_mean_motion": 1.70474306,
        "meta_eccentricity": 0.0002352,
        "meta_inclination": 55.7062,
        "meta_ra_of_asc_node": 106.6773,
        "meta_arg_of_pericenter": 357.4206,
        "meta_mean_anomaly": 2.5431,
        "meta_ephemeris_type": 0,
        "meta_classification_type": "U",
        "meta_norad_cat_id": 41174,
        "meta_element_set_no": 999,
        "meta_rev_at_epoch": 6141,
        "meta_bstar": 0,
        "meta_mean_motion_dot": 3.5e-07,
        "meta_mean_motion_ddot": 0,
        "tle_line1": "1 41174U 15079A   25335.94664828  .00000035  00000+0  00000+0 0  9990",
        "tle_line2": "2 41174  55.7062 106.6773 0002352 357.4206   2.5431  1.70474306 61412"
      },
      "geometry": {
        "type": "Point",
        "coordinates": [
          -58.79247835028035,
          -20.27329001293317
        ]
      }
    },
    {
      "type": "Feature",
      "properties": {
        "norad_id": 41175,
        "name": "GSAT0208 (GALILEO 11)",
        "group": "gnss",
        "lat": 50.78352078088492,
        "lon": 163.31503765568263,
        "alt_km": 23213.383442727372,
        "timestamp": "2025-12-03T10:52:57.693501+00:00",
        "meta_object_name": "GSAT0208 (GALILEO 11)",
        "meta_object_id": "2015-079B",
        "meta_epoch": "2025-12-02T18:04:51.779712",
        "meta_mean_motion": 1.70474153,
        "meta_eccentricity": 0.0001892,
        "meta_inclination": 55.7052,
        "meta_ra_of_asc_node": 106.6523,
        "meta_arg_of_pericenter": 10.0407,
        "meta_mean_anomaly": 349.9226,
        "meta_ephemeris_type": 0,
        "meta_classification_type": "U",
        "meta_norad_cat_id": 41175,
        "meta_element_set_no": 999,
        "meta_rev_at_epoch": 6184,
        "meta_bstar": 0,
        "meta_mean_motion_dot": 2.7e-07,
        "meta_mean_motion_ddot": 0,
        "tle_line1": "1 41175U 15079B   25336.75337708  .00000027  00000+0  00000+0 0  9996",
        "tle_line2": "2 41175  55.7052 106.6523 0001892  10.0407 349.9226  1.70474153 61845"
      },
      "geometry": {
        "type": "Point",
        "coordinates": [
          163.31503765568263,
          50.78352078088492
        ]
      }
    },
    {
      "type": "Feature",
      "properties": {
        "norad_id": 41241,
        "name": "IRNSS-1E",
        "group": "gnss",
        "lat": -31.548950901799444,
        "lon": -9.527391210030546,
        "alt_km": 35802.27882978699,
        "timestamp": "2025-12-03T10:52:57.693513+00:00",
        "meta_object_name": "IRNSS-1E",
        "meta_object_id": "2016-003A",
        "meta_epoch": "2025-12-02T15:46:14.293632",
        "meta_mean_motion": 1.00278203,
        "meta_eccentricity": 0.00219463,
        "meta_inclination": 32.8036,
        "meta_ra_of_asc_node": 62.6001,
        "meta_arg_of_pericenter": 186.4596,
        "meta_mean_anomaly": 170.9534,
        "meta_ephemeris_type": 0,
        "meta_classification_type": "U",
        "meta_norad_cat_id": 41241,
        "meta_element_set_no": 999,
        "meta_rev_at_epoch": 3610,
        "meta_bstar": 0,
        "meta_mean_motion_dot": -3.03e-06,
        "meta_mean_motion_ddot": 0,
        "tle_line1": "1 41241U 16003A   25336.65710988 -.00000303  00000+0  00000+0 0  9990",
        "tle_line2": "2 41241  32.8036  62.6001 0021946 186.4596 170.9534  1.00278203 36104"
      },
      "geometry": {
        "type": "Point",
        "coordinates": [
          -9.527391210030546,
          -31.548950901799444
        ]
      }
    },
    {
      "type": "Feature",
      "properties": {
        "norad_id": 41328,
        "name": "GPS BIIF-12 (PRN 32)",
        "group": "gnss",
        "lat": 19.86991901590033,
        "lon": 111.64417855240511,
        "alt_km": 20368.42535136694,
        "timestamp": "2025-12-03T10:52:57.693528+00:00",
        "meta_object_name": "GPS BIIF-12 (PRN 32)",
        "meta_object_id": "2016-007A",
        "meta_epoch": "2025-12-01T22:09:54.040896",
        "meta_mean_motion": 2.0056114,
        "meta_eccentricity": 0.0091649,
        "meta_inclination": 55.3999,
        "meta_ra_of_asc_node": 97.2864,
        "meta_arg_of_pericenter": 243.3101,
        "meta_mean_anomaly": 115.7281,
        "meta_ephemeris_type": 0,
        "meta_classification_type": "U",
        "meta_norad_cat_id": 41328,
        "meta_element_set_no": 999,
        "meta_rev_at_epoch": 7188,
        "meta_bstar": 0,
        "meta_mean_motion_dot": 1.1e-07,
        "meta_mean_motion_ddot": 0,
        "tle_line1": "1 41328U 16007A   25335.92354214  .00000011  00000+0  00000+0 0  9990",
        "tle_line2": "2 41328  55.3999  97.2864 0091649 243.3101 115.7281  2.00561140 71887"
      },
      "geometry": {
        "type": "Point",
        "coordinates": [
          111.64417855240511,
          19.86991901590033
        ]
      }
    },
    {
      "type": "Feature",
      "properties": {
        "norad_id": 41330,
        "name": "COSMOS 2514 (751)",
        "group": "gnss",
        "lat": -55.190742138638136,
        "lon": -178.45182545839555,
        "alt_km": 19107.080969526152,
        "timestamp": "2025-12-03T10:52:57.693542+00:00",
        "meta_object_name": "COSMOS 2514 (751)",
        "meta_object_id": "2016-008A",
        "meta_epoch": "2025-12-02T04:41:58.161984",
        "meta_mean_motion": 2.13102491,
        "meta_eccentricity": 0.00124931,
        "meta_inclination": 65.1398,
        "meta_ra_of_asc_node": 319.7653,
        "meta_arg_of_pericenter": 219.8518,
        "meta_mean_anomaly": 140.0636,
        "meta_ephemeris_type": 0,
        "meta_classification_type": "U",
        "meta_norad_cat_id": 41330,
        "meta_element_set_no": 999,
        "meta_rev_at_epoch": 7642,
        "meta_bstar": 0,
        "meta_mean_motion_dot": -3.3e-07,
        "meta_mean_motion_ddot": 0,
        "tle_line1": "1 41330U 16008A   25336.19581206 -.00000033  00000+0  00000+0 0  9992",
        "tle_line2": "2 41330  65.1398 319.7653 0012493 219.8518 140.0636  2.13102491 76424"
      },
      "geometry": {
        "type": "Point",
        "coordinates": [
          -178.45182545839555,
          -55.190742138638136
        ]
      }
    }
  ]
}